STARLINK-31466          
1 59420U 24064Y   26068.31033140  .00002868  00000+0  11378-3 0  9999
2 59420  43.0047  58.6662 0001868 251.4597 108.6052 15.27564482109162
TANSTAAFL-2             
1 62378U 24247B   26067.20753490  .00013897  00000+0  50872-3 0  9998
2 62378  44.9880 125.0934 0003072 298.8909  61.1666 15.28016845 67506
