[{"OBJECT_NAME":"STARLINK-31466","OBJECT_ID":"2024-064Y","EPOCH":"2026-03-09T07:26:52.632960","MEAN_MOTION":15.27564482,"ECCENTRICITY":0.00018687,"INCLINATION":43.0047,"RA_OF_ASC_NODE":58.6662,"ARG_OF_PERICENTER":251.4597,"MEAN_ANOMALY":108.6052,"EPHEMERIS_TYPE":0,"CLASSIFICATION_TYPE":"U","NORAD_CAT_ID":59420,"ELEMENT_SET_NO":999,"REV_AT_EPOCH":10916,"BSTAR":0.00011377784,"MEAN_MOTION_DOT":2.868e-5,"MEAN_MOTION_DDOT":0},{"OBJECT_NAME":"TANSTAAFL-2","OBJECT_ID":"2024-247B","EPOCH":"2026-03-08T04:58:51.015360","MEAN_MOTION":15.28016845,"ECCENTRICITY":0.00030723,"INCLINATION":44.988,"RA_OF_ASC_NODE":125.0934,"ARG_OF_PERICENTER":298.8909,"MEAN_ANOMALY":61.1666,"EPHEMERIS_TYPE":0,"CLASSIFICATION_TYPE":"U","NORAD_CAT_ID":62378,"ELEMENT_SET_NO":999,"REV_AT_EPOCH":6750,"BSTAR":0.00050871624,"MEAN_MOTION_DOT":0.00013897,"MEAN_MOTION_DDOT":0}]
